{"type": "FeatureCollection", "features": [ {"type": "Feature", "properties": {"norad_id": 40118, "name": "GAOFEN-2", "group": "resource", "lat": 43.633906593688664, "lon": -114.7472244166762, "alt_km": 620.1782913448524, "timestamp": "2025-12-24T07:45:05.855998+00:00", "meta": {"OBJECT_NAME": "GAOFEN-2", "OBJECT_ID": "2014-049A", "EPOCH": "2025-12-23T23:01:54.604992", "MEAN_MOTION": 14.80626085, "ECCENTRICITY": 0.00087856, "INCLINATION": 98.0368, "RA_OF_ASC_NODE": 57.1471, "ARG_OF_PERICENTER": 81.8756, "MEAN_ANOMALY": 278.3452, "EPHEMERIS_TYPE": 0, "CLASSIFICATION_TYPE": "U", "NORAD_CAT_ID": 40118, "ELEMENT_SET_NO": 999, "REV_AT_EPOCH": 61330, "BSTAR": 6.0648696e-05, "MEAN_MOTION_DOT": 4.12e-06, "MEAN_MOTION_DDOT": 0}, "tle": {"line1": "1 40118U 14049A   25357.95965978  .00000412  00000+0  60649-4 0  9997", "line2": "2 40118  98.0368  57.1471 0008785  81.8756 278.3452 14.80626085613302"}}, "geometry": {"type": "Point", "coordinates": [-114.7472244166762, 43.633906593688664]}}, {"type": "Feature", "properties": {"norad_id": 40143, "name": "YAOGAN-21", "group": "resource", "lat": 81.94508654578611, "lon": -75.98919859291482, "alt_km": 486.9584774342911, "timestamp": "2025-12-24T07:45:05.856009+00:00", "meta": {"OBJECT_NAME": "YAOGAN-21", "OBJECT_ID": "2014-053A", "EPOCH": "2025-12-23T23:27:44.703936", "MEAN_MOTION": 15.23782658, "ECCENTRICITY": 0.00086555, "INCLINATION": 97.1741, "RA_OF_ASC_NODE": 40.801, "ARG_OF_PERICENTER": 5.1486, "MEAN_ANOMALY": 354.9839, "EPHEMERIS_TYPE": 0, "CLASSIFICATION_TYPE": "U", "NORAD_CAT_ID": 40143, "ELEMENT_SET_NO": 999, "REV_AT_EPOCH": 62825, "BSTAR": 0.00018913293, "MEAN_MOTION_DOT": 4.488e-05, "MEAN_MOTION_DDOT": 0}, "tle": {"line1": "1 40143U 14053A   25357.97760074  .00004488  00000+0  18913-3 0  9995", "line2": "2 40143  97.1741  40.8010 0008655   5.1486 354.9839 15.23782658628255"}}, "geometry": {"type": "Point", "coordinates": [-75.98919859291482, 81.94508654578611]}}, {"type": "Feature", "properties": {"norad_id": 40275, "name": "YAOGAN-22", "group": "resource", "lat": -76.09915594223327, "lon": -88.18343994308648, "alt_km": 1205.601465956397, "timestamp": "2025-12-24T07:45:05.856019+00:00", "meta": {"OBJECT_NAME": "YAOGAN-22", "OBJECT_ID": "2014-063A", "EPOCH": "2025-12-23T15:49:35.091552", "MEAN_MOTION": 13.15523027, "ECCENTRICITY": 0.00060686, "INCLINATION": 100.7429, "RA_OF_ASC_NODE": 141.2333, "ARG_OF_PERICENTER": 222.1189, "MEAN_ANOMALY": 137.9456, "EPHEMERIS_TYPE": 0, "CLASSIFICATION_TYPE": "U", "NORAD_CAT_ID": 40275, "ELEMENT_SET_NO": 999, "REV_AT_EPOCH": 53673, "BSTAR": 8.3956315e-05, "MEAN_MOTION_DOT": -1.5e-07, "MEAN_MOTION_DDOT": 0}, "tle": {"line1": "1 40275U 14063A   25357.65943393 -.00000015  00000+0  83956-4 0  9997", "line2": "2 40275 100.7429 141.2333 0006068 222.1189 137.9456 13.15523027536733"}}, "geometry": {"type": "Point", "coordinates": [-88.18343994308648, -76.09915594223327]}}, {"type": "Feature", "properties": {"norad_id": 40298, "name": "ASNARO", "group": "resource", "lat": -29.96048710011385, "lon": 78.26128985572622, "alt_km": 514.774731399817, "timestamp": "2025-12-24T07:45:05.856029+00:00", "meta": {"OBJECT_NAME": "ASNARO", "OBJECT_ID": "2014-070A", "EPOCH": "2025-12-23T22:24:10.509408", "MEAN_MOTION": 15.19712418, "ECCENTRICITY": 0.00058458, "INCLINATION": 97.3639, "RA_OF_ASC_NODE": 73.606, "ARG_OF_PERICENTER": 91.9154, "MEAN_ANOMALY": 268.2751, "EPHEMERIS_TYPE": 0, "CLASSIFICATION_TYPE": "U", "NORAD_CAT_ID": 40298, "ELEMENT_SET_NO": 999, "REV_AT_EPOCH": 61739, "BSTAR": 0.00036429431, "MEAN_MOTION_DOT": 7.72e-05, "MEAN_MOTION_DDOT": 0}, "tle": {"line1": "1 40298U 14070A   25357.93345497  .00007720  00000+0  36429-3 0  9993", "line2": "2 40298  97.3639  73.6060 0005845  91.9154 268.2751 15.19712418617391"}}, "geometry": {"type": "Point", "coordinates": [78.26128985572622, -29.96048710011385]}}, {"type": "Feature", "properties": {"norad_id": 40310, "name": "YAOGAN-24", "group": "resource", "lat": -63.89599522150044, "lon": 146.42613979561827, "alt_km": 658.9797690971618, "timestamp": "2025-12-24T07:45:05.856039+00:00", "meta": {"OBJECT_NAME": "YAOGAN-24", "OBJECT_ID": "2014-072A", "EPOCH": "2025-12-23T22:17:09.841632", "MEAN_MOTION": 14.76198374, "ECCENTRICITY": 0.0015168, "INCLINATION": 98.1231, "RA_OF_ASC_NODE": 129.0821, "ARG_OF_PERICENTER": 104.5149, "MEAN_ANOMALY": 255.7744, "EPHEMERIS_TYPE": 0, "CLASSIFICATION_TYPE": "U", "NORAD_CAT_ID": 40310, "ELEMENT_SET_NO": 999, "REV_AT_EPOCH": 59786, "BSTAR": 0.00015592683, "MEAN_MOTION_DOT": 1.027e-05, "MEAN_MOTION_DDOT": 0}, "tle": {"line1": "1 40310U 14072A   25357.92858613  .00001027  00000+0  15593-3 0  9991", "line2": "2 40310  98.1231 129.0821 0015168 104.5149 255.7744 14.76198374597861"}}, "geometry": {"type": "Point", "coordinates": [146.42613979561827, -63.89599522150044]}}, {"type": "Feature", "properties": {"norad_id": 40336, "name": "CBERS 4", "group": "resource", "lat": 37.28388928536801, "lon": -117.65349635054268, "alt_km": 769.6413152369905, "timestamp": "2025-12-24T07:45:05.856049+00:00", "meta": {"OBJECT_NAME": "CBERS 4", "OBJECT_ID": "2014-079A", "EPOCH": "2025-12-23T22:43:39.308736", "MEAN_MOTION": 14.35520986, "ECCENTRICITY": 0.00018669, "INCLINATION": 98.3291, "RA_OF_ASC_NODE": 55.5796, "ARG_OF_PERICENTER": 100.6648, "MEAN_ANOMALY": 259.4749, "EPHEMERIS_TYPE": 0, "CLASSIFICATION_TYPE": "U", "NORAD_CAT_ID": 40336, "ELEMENT_SET_NO": 999, "REV_AT_EPOCH": 57881, "BSTAR": -1.0739872e-05, "MEAN_MOTION_DOT": -7.3e-07, "MEAN_MOTION_DDOT": 0}, "tle": {"line1": "1 40336U 14079A   25357.94698274 -.00000073  00000+0 -10740-4 0  9995", "line2": "2 40336  98.3291  55.5796 0001866 100.6648 259.4749 14.35520986578815"}}, "geometry": {"type": "Point", "coordinates": [-117.65349635054268, 37.28388928536801]}}, {"type": "Feature", "properties": {"norad_id": 40362, "name": "YAOGAN-26", "group": "resource", "lat": 73.75750528664071, "lon": -156.2204441074846, "alt_km": 441.0777589466743, "timestamp": "2025-12-24T07:45:05.856059+00:00", "meta": {"OBJECT_NAME": "YAOGAN-26", "OBJECT_ID": "2014-088A", "EPOCH": "2025-12-23T23:30:00.454752", "MEAN_MOTION": 15.39682595, "ECCENTRICITY": 0.00045511, "INCLINATION": 97.0644, "RA_OF_ASC_NODE": 358.2541, "ARG_OF_PERICENTER": 355.2392, "MEAN_ANOMALY": 4.881, "EPHEMERIS_TYPE": 0, "CLASSIFICATION_TYPE": "U", "NORAD_CAT_ID": 40362, "ELEMENT_SET_NO": 999, "REV_AT_EPOCH": 61067, "BSTAR": 0.00050568102, "MEAN_MOTION_DOT": 0.00019921, "MEAN_MOTION_DDOT": 0}, "tle": {"line1": "1 40362U 14088A   25357.97917193  .00019921  00000+0  50568-3 0  9992", "line2": "2 40362  97.0644 358.2541 0004551 355.2392   4.8810 15.39682595610673"}}, "geometry": {"type": "Point", "coordinates": [-156.2204441074846, 73.75750528664071]}}, {"type": "Feature", "properties": {"norad_id": 40376, "name": "SMAP", "group": "resource", "lat": 62.57542173655299, "lon": -13.109250470589828, "alt_km": 675.4773607863781, "timestamp": "2025-12-24T07:45:05.856069+00:00", "meta": {"OBJECT_NAME": "SMAP", "OBJECT_ID": "2015-003A", "EPOCH": "2025-12-23T23:15:22.751712", "MEAN_MOTION": 14.63358355, "ECCENTRICITY": 0.00012296, "INCLINATION": 98.129, "RA_OF_ASC_NODE": 2.531, "ARG_OF_PERICENTER": 92.3318, "MEAN_ANOMALY": 267.8025, "EPHEMERIS_TYPE": 0, "CLASSIFICATION_TYPE": "U", "NORAD_CAT_ID": 40376, "ELEMENT_SET_NO": 999, "REV_AT_EPOCH": 58199, "BSTAR": 0.00010844188, "MEAN_MOTION_DOT": 5.13e-06, "MEAN_MOTION_DDOT": 0}, "tle": {"line1": "1 40376U 15003A   25357.96901333  .00000513  00000+0  10844-3 0  9993", "line2": "2 40376  98.1290   2.5310 0001229  92.3318 267.8025 14.63358355581997"}}, "geometry": {"type": "Point", "coordinates": [-13.109250470589828, 62.57542173655299]}}, {"type": "Feature", "properties": {"norad_id": 40536, "name": "KOMPSAT-3A", "group": "resource", "lat": -58.675646529959884, "lon": 140.501222547144, "alt_km": 443.2668417121886, "timestamp": "2025-12-24T07:45:05.856079+00:00", "meta": {"OBJECT_NAME": "KOMPSAT-3A", "OBJECT_ID": "2015-014A", "EPOCH": "2025-12-23T22:56:34.454976", "MEAN_MOTION": 15.44343356, "ECCENTRICITY": 0.00055889, "INCLINATION": 97.6804, "RA_OF_ASC_NODE": 332.9252, "ARG_OF_PERICENTER": 102.336, "MEAN_ANOMALY": 257.8513, "EPHEMERIS_TYPE": 0, "CLASSIFICATION_TYPE": "U", "NORAD_CAT_ID": 40536, "ELEMENT_SET_NO": 999, "REV_AT_EPOCH": 59468, "BSTAR": 0.00043490368, "MEAN_MOTION_DOT": 0.00019995, "MEAN_MOTION_DDOT": 0}, "tle": {"line1": "1 40536U 15014A   25357.95595434  .00019995  00000+0  43490-3 0  9990", "line2": "2 40536  97.6804 332.9252 0005588 102.3360 257.8513 15.44343356594682"}}, "geometry": {"type": "Point", "coordinates": [140.501222547144, -58.675646529959884]}}, {"type": "Feature", "properties": {"norad_id": 40697, "name": "SENTINEL-2A", "group": "resource", "lat": 17.12456592068214, "lon": 68.02919822907192, "alt_km": 789.2529690102483, "timestamp": "2025-12-24T07:45:05.856089+00:00", "meta": {"OBJECT_NAME": "SENTINEL-2A", "OBJECT_ID": "2015-028A", "EPOCH": "2025-12-23T23:16:45.288768", "MEAN_MOTION": 14.30809373, "ECCENTRICITY": 0.00010675, "INCLINATION": 98.5733, "RA_OF_ASC_NODE": 70.3452, "ARG_OF_PERICENTER": 90.3283, "MEAN_ANOMALY": 269.8022, "EPHEMERIS_TYPE": 0, "CLASSIFICATION_TYPE": "U", "NORAD_CAT_ID": 40697, "ELEMENT_SET_NO": 999, "REV_AT_EPOCH": 54867, "BSTAR": 5.2971087e-05, "MEAN_MOTION_DOT": 9.5e-07, "MEAN_MOTION_DDOT": 0}, "tle": {"line1": "1 40697U 15028A   25357.96996862  .00000095  00000+0  52971-4 0  9990", "line2": "2 40697  98.5733  70.3452 0001067  90.3283 269.8022 14.30809373548670"}}, "geometry": {"type": "Point", "coordinates": [68.02919822907192, 17.12456592068214]}}]}